{
  "type": "FeatureCollection",
  "features": [
    {
      "type": "Feature",
      "properties": {
        "norad_id": 66901,
        "name": "STARLINK-36043",
        "group": "last-30-days",
        "lat": -23.874021122495826,
        "lon": 44.51075427053019,
        "alt_km": 304.792140587635,
        "timestamp": "2025-12-14T16:47:39.439264+00:00",
        "meta_object_name": "STARLINK-36043",
        "meta_object_id": "2025-283Z",
        "meta_epoch": "2025-12-13T20:00:03.000384",
        "meta_mean_motion": 15.92974163,
        "meta_eccentricity": 0.00010435,
        "meta_inclination": 53.1543,
        "meta_ra_of_asc_node": 68.3081,
        "meta_arg_of_pericenter": 47.8531,
        "meta_mean_anomaly": 354.5068,
        "meta_ephemeris_type": 0,
        "meta_classification_type": "U",
        "meta_norad_cat_id": 66901,
        "meta_element_set_no": 999,
        "meta_rev_at_epoch": 260,
        "meta_bstar": -0.0044225758,
        "meta_mean_motion_dot": -0.01574377,
        "meta_mean_motion_ddot": 0.00070590452,
        "tle_line1": "1 66901U 25283Z   25347.83336806 -.01574377  70590-3 -44226-2 0  9990",
        "tle_line2": "2 66901  53.1543  68.3081 0001043  47.8531 354.5068 15.92974163  2603"
      },
      "geometry": {
        "type": "Point",
        "coordinates": [
          44.51075427053019,
          -23.874021122495826
        ]
      }
    },
    {
      "type": "Feature",
      "properties": {
        "norad_id": 66902,
        "name": "STARLINK-35983",
        "group": "last-30-days",
        "lat": -21.6996016603756,
        "lon": 46.52682115441281,
        "alt_km": 304.35412909178285,
        "timestamp": "2025-12-14T16:47:39.439276+00:00",
        "meta_object_name": "STARLINK-35983",
        "meta_object_id": "2025-283AA",
        "meta_epoch": "2025-12-13T20:00:03.000384",
        "meta_mean_motion": 15.9303436,
        "meta_eccentricity": 7.882e-05,
        "meta_inclination": 53.154,
        "meta_ra_of_asc_node": 68.3027,
        "meta_arg_of_pericenter": 56.7331,
        "meta_mean_anomaly": 348.3975,
        "meta_ephemeris_type": 0,
        "meta_classification_type": "U",
        "meta_norad_cat_id": 66902,
        "meta_element_set_no": 999,
        "meta_rev_at_epoch": 260,
        "meta_bstar": -0.0045159905,
        "meta_mean_motion_dot": -0.01612174,
        "meta_mean_motion_ddot": 0.00073774581,
        "tle_line1": "1 66902U 25283AA  25347.83336806 -.01612174  73775-3 -45160-2 0  9995",
        "tle_line2": "2 66902  53.1540  68.3027 0000788  56.7331 348.3975 15.93034360  2608"
      },
      "geometry": {
        "type": "Point",
        "coordinates": [
          46.52682115441281,
          -21.6996016603756
        ]
      }
    },
    {
      "type": "Feature",
      "properties": {
        "norad_id": 66903,
        "name": "STARLINK-36077",
        "group": "last-30-days",
        "lat": -19.92631124760418,
        "lon": 48.11019110285407,
        "alt_km": 304.14204218391205,
        "timestamp": "2025-12-14T16:47:39.439286+00:00",
        "meta_object_name": "STARLINK-36077",
        "meta_object_id": "2025-283AB",
        "meta_epoch": "2025-12-13T20:00:03.000384",
        "meta_mean_motion": 15.93080365,
        "meta_eccentricity": 8.231e-05,
        "meta_inclination": 53.1544,
        "meta_ra_of_asc_node": 68.2979,
        "meta_arg_of_pericenter": 59.2733,
        "meta_mean_anomaly": 348.0661,
        "meta_ephemeris_type": 0,
        "meta_classification_type": "U",
        "meta_norad_cat_id": 66903,
        "meta_element_set_no": 999,
        "meta_rev_at_epoch": 260,
        "meta_bstar": -0.0045474803,
        "meta_mean_motion_dot": -0.01627146,
        "meta_mean_motion_ddot": 0.00075071843,
        "tle_line1": "1 66903U 25283AB  25347.83336806 -.01627146  75072-3 -45475-2 0  9992",
        "tle_line2": "2 66903  53.1544  68.2979 0000823  59.2733 348.0661 15.93080365  2607"
      },
      "geometry": {
        "type": "Point",
        "coordinates": [
          48.11019110285407,
          -19.92631124760418
        ]
      }
    },
    {
      "type": "Feature",
      "properties": {
        "norad_id": 66904,
        "name": "STARLINK-36059",
        "group": "last-30-days",
        "lat": -18.028016868390257,
        "lon": 49.752593176796964,
        "alt_km": 303.865023081883,
        "timestamp": "2025-12-14T16:47:39.439296+00:00",
        "meta_object_name": "STARLINK-36059",
        "meta_object_id": "2025-283AC",
        "meta_epoch": "2025-12-13T20:00:03.000384",
        "meta_mean_motion": 15.93119809,
        "meta_eccentricity": 7.731e-05,
        "meta_inclination": 53.154,
        "meta_ra_of_asc_node": 68.2929,
        "meta_arg_of_pericenter": 59.9129,
        "meta_mean_anomaly": 349.7692,
        "meta_ephemeris_type": 0,
        "meta_classification_type": "U",
        "meta_norad_cat_id": 66904,
        "meta_element_set_no": 999,
        "meta_rev_at_epoch": 260,
        "meta_bstar": -0.0045486901,
        "meta_mean_motion_dot": -0.01630899,
        "meta_mean_motion_ddot": 0.00075419768,
        "tle_line1": "1 66904U 25283AC  25347.83336806 -.01630899  75420-3 -45487-2 0  9992",
        "tle_line2": "2 66904  53.1540  68.2929 0000773  59.9129 349.7692 15.93119809  2607"
      },
      "geometry": {
        "type": "Point",
        "coordinates": [
          49.752593176796964,
          -18.028016868390257
        ]
      }
    },
    {
      "type": "Feature",
      "properties": {
        "norad_id": 66905,
        "name": "STARLINK-36075",
        "group": "last-30-days",
        "lat": -16.37968098840565,
        "lon": 51.14119965654884,
        "alt_km": 303.6631227529224,
        "timestamp": "2025-12-14T16:47:39.439306+00:00",
        "meta_object_name": "STARLINK-36075",
        "meta_object_id": "2025-283AD",
        "meta_epoch": "2025-12-13T20:00:03.000384",
        "meta_mean_motion": 15.93164933,
        "meta_eccentricity": 9.28e-05,
        "meta_inclination": 53.1543,
        "meta_ra_of_asc_node": 68.2887,
        "meta_arg_of_pericenter": 63.6148,
        "meta_mean_anomaly": 348.0873,
        "meta_ephemeris_type": 0,
        "meta_classification_type": "U",
        "meta_norad_cat_id": 66905,
        "meta_element_set_no": 999,
        "meta_rev_at_epoch": 260,
        "meta_bstar": -0.0045820566,
        "meta_mean_motion_dot": -0.01646574,
        "meta_mean_motion_ddot": 0.00076791643,
        "tle_line1": "1 66905U 25283AD  25347.83336806 -.01646574  76792-3 -45821-2 0  9995",
        "tle_line2": "2 66905  53.1543  68.2887 0000928  63.6148 348.0873 15.93164933  2600"
      },
      "geometry": {
        "type": "Point",
        "coordinates": [
          51.14119965654884,
          -16.37968098840565
        ]
      }
    },
    {
      "type": "Feature",
      "properties": {
        "norad_id": 66906,
        "name": "1998-067XS",
        "group": "last-30-days",
        "lat": -20.978768197981694,
        "lon": -29.619109713131017,
        "alt_km": 415.31621845317295,
        "timestamp": "2025-12-14T16:47:39.439318+00:00",
        "meta_object_name": "1998-067XS",
        "meta_object_id": "1998-067XS",
        "meta_epoch": "2025-12-13T19:47:52.336320",
        "meta_mean_motion": 15.50642629,
        "meta_eccentricity": 0.00035104,
        "meta_inclination": 51.6303,
        "meta_ra_of_asc_node": 137.0364,
        "meta_arg_of_pericenter": 208.0686,
        "meta_mean_anomaly": 152.0114,
        "meta_ephemeris_type": 0,
        "meta_classification_type": "U",
        "meta_norad_cat_id": 66906,
        "meta_element_set_no": 999,
        "meta_rev_at_epoch": 178,
        "meta_bstar": 0.00053972464,
        "meta_mean_motion_dot": 0.00031181,
        "meta_mean_motion_ddot": 0,
        "tle_line1": "1 66906U 98067XS  25347.82491130  .00031181  00000+0  53972-3 0  9998",
        "tle_line2": "2 66906  51.6303 137.0364 0003510 208.0686 152.0114 15.50642629  1780"
      },
      "geometry": {
        "type": "Point",
        "coordinates": [
          -29.619109713131017,
          -20.978768197981694
        ]
      }
    },
    {
      "type": "Feature",
      "properties": {
        "norad_id": 66907,
        "name": "1998-067XT",
        "group": "last-30-days",
        "lat": -36.3886210940907,
        "lon": -11.62621222135556,
        "alt_km": 412.75006584008224,
        "timestamp": "2025-12-14T16:47:39.439329+00:00",
        "meta_object_name": "1998-067XT",
        "meta_object_id": "1998-067XT",
        "meta_epoch": "2025-12-13T16:37:31.235232",
        "meta_mean_motion": 15.51604707,
        "meta_eccentricity": 0.00043667,
        "meta_inclination": 51.6303,
        "meta_ra_of_asc_node": 137.6541,
        "meta_arg_of_pericenter": 232.3065,
        "meta_mean_anomaly": 127.7529,
        "meta_ephemeris_type": 0,
        "meta_classification_type": "U",
        "meta_norad_cat_id": 66907,
        "meta_element_set_no": 999,
        "meta_rev_at_epoch": 176,
        "meta_bstar": 0.0011074189,
        "meta_mean_motion_dot": 0.00067037,
        "meta_mean_motion_ddot": 0,
        "tle_line1": "1 66907U 98067XT  25347.69272263  .00067037  00000+0  11074-2 0  9993",
        "tle_line2": "2 66907  51.6303 137.6541 0004366 232.3065 127.7529 15.51604707  1768"
      },
      "geometry": {
        "type": "Point",
        "coordinates": [
          -11.62621222135556,
          -36.3886210940907
        ]
      }
    }
  ]
}